[{"OBJECT_NAME":"CELESTIS-17 & SHERPA-FX1","OBJECT_ID":"2021-006CB","EPOCH":"2026-03-09T15:26:05.078112","MEAN_MOTION":15.30994801,"ECCENTRICITY":0.000663,"INCLINATION":97.2397,"RA_OF_ASC_NODE":112.1052,"ARG_OF_PERICENTER":178.1385,"MEAN_ANOMALY":181.9882,"EPHEMERIS_TYPE":0,"CLASSIFICATION_TYPE":"U","NORAD_CAT_ID":47486,"ELEMENT_SET_NO":999,"REV_AT_EPOCH":28406,"BSTAR":0.00024301,"MEAN_MOTION_DOT":7.207e-5,"MEAN_MOTION_DDOT":0},{"OBJECT_NAME":"STARLINK-36082","OBJECT_ID":"2025-281AA","EPOCH":"2026-03-09T03:49:04.688256","MEAN_MOTION":15.27624289,"ECCENTRICITY":0.00018153,"INCLINATION":43.0015,"RA_OF_ASC_NODE":346.5308,"ARG_OF_PERICENTER":241.845,"MEAN_ANOMALY":118.2219,"EPHEMERIS_TYPE":0,"CLASSIFICATION_TYPE":"U","NORAD_CAT_ID":66872,"ELEMENT_SET_NO":999,"REV_AT_EPOCH":1609,"BSTAR":0.0015072321,"MEAN_MOTION_DOT":0.00041504,"MEAN_MOTION_DDOT":0}]
